NORAD_CAT_ID,OBJECT_NAME,OBJECT_TYPE,EPOCH,MEAN_MOTION,ECCENTRICITY,INCLINATION,RA_OF_ASC_NODE,ARG_OF_PERICENTER,MEAN_ANOMALY,BSTAR,MEAN_MOTION_DOT,MEAN_MOTION_DDOT,TLE_LINE0,TLE_LINE1,TLE_LINE2,SEMIMAJOR_AXIS,PERIOD,APOGEE,PERIGEE,DECAYED
51758.0,STARLINK-3458,PAYLOAD,2022-08-19 16:00:00,15.08817355,0.0001574,53.2189,16.1612,60.8542,208.0599,-0.00025988,-4.419e-05,0.0,0 STARLINK-3458,1 51758U 22016AW  22231.66667824 -.00004419  00000-0 -25988-3 0  9997,2 51758  53.2189  16.1612 0001574  60.8542 208.0599 15.08817355 28887,6917.95,95.439,540.903,538.726,0.0
51758.0,STARLINK-3458,PAYLOAD,2022-08-19 22:00:00,15.08812608,0.0001576999999999,53.2188,15.0393,56.9073,130.6812,0.0018895,0.00029889,0.0,0 STARLINK-3458,1 51758U 22016AW  22231.91667824  .00029889  00000-0  18895-2 0  9999,2 51758  53.2188  15.0393 0001577  56.9073 130.6812 15.08812608  1300,6917.964,95.439,540.92,538.738,0.0
51758.0,STARLINK-3458,PAYLOAD,2022-08-20 14:00:01,15.08850093,0.0001496,53.2192,12.0462,62.2508,148.4894,-0.0014762,-0.00023711,0.0,0 STARLINK-3458,1 51758U 22016AW  22232.58334491 -.00023711  00000-0 -14762-2 0  9993,2 51758  53.2192  12.0462 0001496  62.2508 148.4894 15.08850093  1309,6917.85,95.437,540.749,538.68,0.0
51758.0,STARLINK-3458,PAYLOAD,2022-08-20 16:00:00,15.08848786,0.0001528,53.2191,11.6725,59.5405,244.0998,-0.0017542,-0.00028104,0.0,0 STARLINK-3458,1 51758U 22016AW  22232.66667824 -.00028104  00000-0 -17542-2 0  9991,2 51758  53.2191  11.6725 0001528  59.5405 244.0998 15.08848786 29030,6917.854,95.437,540.776,538.661,0.0
51758.0,STARLINK-3458,PAYLOAD,2022-08-20 22:00:00,15.08834748,0.0001476,53.2189,10.5503,55.5903,166.7459,-0.0010193,-0.00016471,0.0,0 STARLINK-3458,1 51758U 22016AW  22232.91667824 -.00016471  00000-0 -10193-2 0  9998,2 51758  53.2189  10.5503 0001476  55.5903 166.7459 15.08834748  1305,6917.896,95.438,540.783,538.74,0.0
51758.0,STARLINK-3458,PAYLOAD,2022-08-21 14:00:01,15.08837472,0.0001379,53.2191,7.5574,60.1081,185.3795,-0.0010862,-0.00017532,0.0,0 STARLINK-3458,1 51758U 22016AW  22233.58334491 -.00017532  00000-0 -10862-2 0  9995,2 51758  53.2191   7.5574 0001379  60.1081 185.3795 15.08837472  1300,6917.888000000001,95.438,540.707,538.799,0.0
51758.0,STARLINK-3458,PAYLOAD,2022-08-22 00:00:00,15.0885073,0.0001365999999999,53.2187,5.6868,57.1862,292.7751,-0.001936,-0.00030976,0.0,0 STARLINK-3458,1 51758U 22016AW  22234.00001157 -.00030976  00000-0 -19360-2 0  9992,2 51758  53.2187   5.6868 0001366  57.1862 292.7751 15.08850730  1306,6917.848000000001,95.437,540.658,538.768,0.0
51758.0,STARLINK-3458,PAYLOAD,2022-08-22 06:00:00,15.08815591,0.0001262999999999,53.2188,4.5634,64.9611,203.7052,0.0030629999999999,0.00048764,0.0,0 STARLINK-3458,1 51758U 22016AW  22234.25001157  .00048764  00000-0  30630-2 0  9994,2 51758  53.2188   4.5634 0001263  64.9611 203.7052 15.08815591 29278,6917.955,95.439,540.694,538.946,0.0
51758.0,STARLINK-3458,PAYLOAD,2022-08-22 12:00:00,15.08856777,0.0001313,53.219,3.4422,63.6819,123.6655,-0.0015707,-0.0002521,0.0,0 STARLINK-3458,1 51758U 22016AW  22234.50001157 -.00025210  00000-0 -15707-2 0  9993,2 51758  53.2190   3.4422 0001313  63.6819 123.6655 15.08856777  1300,6917.829000000002,95.436,540.602,538.786,0.0
51758.0,STARLINK-3458,PAYLOAD,2022-08-22 22:00:00,15.08860496,0.0001385999999999,53.2183,1.5724,56.5766,235.2706,-0.0016007999999999,-0.00025688,0.0,0 STARLINK-3458,1 51758U 22016AW  22234.91667824 -.00025688  00000-0 -16008-2 0  9991,2 51758  53.2183   1.5724 0001386  56.5766 235.2706 15.08860496 29375,6917.818,95.436,540.6419999999998,538.724,0.0
51758.0,STARLINK-3458,PAYLOAD,2022-08-23 14:00:01,15.08833897,0.0001474,53.2184,358.5798,62.4651,252.5743,-0.0011583,-0.00018672,0.0,0 STARLINK-3458,1 51758U 22016AW  22235.58334491 -.00018672  00000-0 -11583-2 0  9994,2 51758  53.2184 358.5798 0001474  62.4651 252.5743 15.08833897  1300,6917.899,95.438,540.784,538.744,0.0
51758.0,STARLINK-3458,PAYLOAD,2022-08-23 22:00:01,15.08841225,0.0001463,53.2181,357.0833,58.2976,268.3798,-0.0011732,-0.00018911,0.0,0 STARLINK-3458,1 51758U 22016AW  22235.91668981 -.00018911  00000-0 -11732-2 0  9997,2 51758  53.2181 357.0833 0001463  58.2976 268.3798 15.08841225  1301,6917.877,95.437,540.754,538.73,0.0
51758.0,STARLINK-3458,PAYLOAD,2022-08-24 14:00:01,15.08843434,0.0001513,53.2183,354.0909,61.1339,288.657,-0.0011086,-0.0001789,0.0,0 STARLINK-3458,1 51758U 22016AW  22236.58334491 -.00017890  00000-0 -11086-2 0  9994,2 51758  53.2183 354.0909 0001513  61.1339 288.6570 15.08843434  1303,6917.87,95.437,540.7819999999998,538.688,0.0
51758.0,STARLINK-3458,PAYLOAD,2022-08-24 16:00:00,15.08832833,0.0001543,53.2185,353.7172,59.8582,22.8344,0.00053271,8.199e-05,0.0,0 STARLINK-3458,1 51758U 22016AW  22236.66667824  .00008199  00000-0  53271-3 0  9995,2 51758  53.2185 353.7172 0001543  59.8582  22.8344 15.08832833 29645,6917.901999999999,95.438,540.835,538.7,0.0
51758.0,STARLINK-3458,PAYLOAD,2022-08-24 22:00:00,15.08855796,0.0001486999999999,53.2183,352.5944,57.1511,304.2282,-0.0013845,-0.00022264,0.0,0 STARLINK-3458,1 51758U 22016AW  22236.91667824 -.00022264  00000-0 -13845-2 0  9996,2 51758  53.2183 352.5944 0001487  57.1511 304.2282 15.08855796  1312,6917.831999999999,95.437,540.726,538.668,0.0
51758.0,STARLINK-3458,PAYLOAD,2022-08-25 14:00:01,15.08854566,0.0001571999999999,53.2186,349.6021,59.4456,325.1371,-0.0010316,-0.00016675,0.0,0 STARLINK-3458,1 51758U 22016AW  22237.58334491 -.00016675  00000-0 -10316-2 0  9990,2 51758  53.2186 349.6021 0001572  59.4456 325.1371 15.08854566  1300,6917.8359999999975,95.437,540.788,538.613,0.0
51758.0,STARLINK-3458,PAYLOAD,2022-08-25 22:00:00,15.08870214,0.0001518,53.2187,348.1054,55.9464,340.2381,-0.0017961,-0.00028783,0.0,0 STARLINK-3458,1 51758U 22016AW  22237.91667824 -.00028783  00000-0 -17961-2 0  9992,2 51758  53.2187 348.1054 0001518  55.9464 340.2381 15.08870214 29836,6917.788000000001,95.436,540.703,538.6030000000002,0.0
51758.0,STARLINK-3458,PAYLOAD,2022-08-26 14:00:01,15.08838013,0.000152,53.2191,345.1132,55.6235,3.8426,-0.00086795,-0.00014074,0.0,0 STARLINK-3458,1 51758U 22016AW  22238.58335648 -.00014074  00000-0 -86795-3 0  9992,2 51758  53.2191 345.1132 0001520  55.6235   3.8426 15.08838013  1306,6917.886,95.438,540.803,538.7,0.0
51758.0,STARLINK-3458,PAYLOAD,2022-08-26 22:00:00,15.08854944,0.0001476,53.2192,343.6165,53.4858,17.502,-0.0017114,-0.00027433,0.0,0 STARLINK-3458,1 51758U 22016AW  22238.91667824 -.00027433  00000-0 -17114-2 0  9994,2 51758  53.2192 343.6165 0001476  53.4858  17.5020 15.08854944 29980,6917.835,95.437,540.721,538.679,0.0
51758.0,STARLINK-3458,PAYLOAD,2022-08-27 14:00:01,15.08854578,0.0001561999999999,53.2195,340.6246,54.8544,39.3371,-0.0010761,-0.0001738,0.0,0 STARLINK-3458,1 51758U 22016AW  22239.58334491 -.00017380  00000-0 -10761-2 0  9990,2 51758  53.2195 340.6246 0001562  54.8544  39.3371 15.08854578  1303,6917.8359999999975,95.437,540.781,538.62,0.0
51758.0,STARLINK-3458,PAYLOAD,2022-08-27 22:00:00,15.088643,0.0001545,53.2195,339.1277,55.3344,50.463,-0.0035501999999999,-0.00056385,0.0,0 STARLINK-3458,1 51758U 22016AW  22239.91667824 -.00056385  00000-0 -35502-2 0  9994,2 51758  53.2195 339.1277 0001545  55.3344  50.4630 15.08864300  1301,6917.806,95.436,540.74,538.602,0.0
51758.0,STARLINK-3458,PAYLOAD,2022-08-28 14:00:01,15.08840673,0.0001626999999999,53.2195,336.136,56.458,72.5349,-0.00011086,-2.052e-05,0.0,0 STARLINK-3458,1 51758U 22016AW  22240.58334491 -.00002052  00000-0 -11086-3 0  9994,2 51758  53.2195 336.1360 0001627  56.4580  72.5349 15.08840673 30239,6917.878000000002,95.438,540.869,538.618,0.0
51758.0,STARLINK-3458,PAYLOAD,2022-08-28 22:00:00,15.08865203,0.0001576999999999,53.2192,334.639,57.6141,82.9714,-0.0032949,-0.00052381,0.0,0 STARLINK-3458,1 51758U 22016AW  22240.91667824 -.00052381  00000-0 -32949-2 0  9990,2 51758  53.2192 334.6390 0001577  57.6141  82.9714 15.08865203  1305,6917.803000000001,95.436,540.759,538.577,0.0
51758.0,STARLINK-3458,PAYLOAD,2022-08-29 14:00:01,15.08908127,0.000166,53.2186,331.6483,58.8302,104.9432,-0.012372,-0.00192338,0.0,0 STARLINK-3458,1 51758U 22016AW  22241.58334491 -.00192338  00000-0 -12372-1 0  9999,2 51758  53.2186 331.6483 0001660  58.8302 104.9432 15.08908127  1308,6917.672,95.433,540.685,538.389,0.0
51758.0,STARLINK-3458,PAYLOAD,2022-08-29 16:00:00,15.08836014,0.0001666999999999,53.2191,331.2736,56.3429,200.3478,0.00078228,0.00012183,0.0,0 STARLINK-3458,1 51758U 22016AW  22241.66667824  .00012183  00000-0  78228-3 0  9998,2 51758  53.2191 331.2736 0001667  56.3429 200.3478 15.08836014 30398,6917.893,95.438,540.911,538.604,0.0
51758.0,STARLINK-3458,PAYLOAD,2022-08-29 22:00:00,15.08855652,0.0001607,53.2187,330.1502,60.0651,115.3208,-0.003511,-0.00055757,0.0,0 STARLINK-3458,1 51758U 22016AW  22241.91667824 -.00055757  00000-0 -35110-2 0  9994,2 51758  53.2187 330.1502 0001607  60.0651 115.3208 15.08855652  1309,6917.833000000001,95.437,540.809,538.586,0.0
51758.0,STARLINK-3458,PAYLOAD,2022-08-30 14:00:01,15.08821779,0.0001709,53.2184,327.1588,59.2239,139.3365,0.00081418,0.00012687,0.0,0 STARLINK-3458,1 51758U 22016AW  22242.58334491  .00012687  00000-0  81418-3 0  9995,2 51758  53.2184 327.1588 0001709  59.2239 139.3365 15.08821779  1304,6917.936,95.439,540.9830000000002,538.619,0.0
51758.0,STARLINK-3458,PAYLOAD,2022-08-30 16:00:00,15.08815466,0.0001693,53.2182,326.7848,57.8081,233.6515,0.0022332,0.00035408,0.0,0 STARLINK-3458,1 51758U 22016AW  22242.66667824  .00035408  00000-0  22332-2 0  9998,2 51758  53.2182 326.7848 0001693  57.8081 233.6515 15.08815466 30546,6917.955,95.439,540.992,538.649,0.0
51758.0,STARLINK-3458,PAYLOAD,2022-08-30 22:00:00,15.08856046,0.0001558,53.2179,325.6613,60.2793,149.8608,-0.0045128,-0.00071429,0.0,0 STARLINK-3458,1 51758U 22016AW  22242.91667824 -.00071429  00000-0 -45128-2 0  9999,2 51758  53.2179 325.6613 0001558  60.2793 149.8608 15.08856046  1300,6917.831,95.437,540.774,538.619,0.0
